NOAA 8                  
1 13923U 83022A   24327.06803545  .00000398  00000+0  17310-3 0  9996
2 13923  98.7363 327.3888 0015674 129.0171 231.2409 14.29455918169587
NOAA 8 DEB              
1 38840U 83022M   24324.90608889  .00024998  00000+0  45244-2 0  9993
2 38840  98.3893 348.3232 0008679 161.5815 318.8378 14.66282870174764
